GLOBALSTAR M068         
1 32266U 07048D   24138.58326615 -.00000053  00000+0  28489-3 0  9994
2 32266  51.9898  68.1521 0001251  12.0545 159.4902 12.62789056767578
GLOBALSTAR M079         
1 37188U 10054A   24138.64211211 -.00000083  00000+0  11743-3 0  9993
2 37188  52.0039 263.8881 0000885 130.2470 242.3587 12.62269933626505
GLOBALSTAR M074         
1 37189U 10054B   24138.52487652 -.00000086  00000+0  97378-4 0  9997
2 37189  52.0017 263.6298 0000616 122.2304 316.6247 12.62268590627092
GLOBALSTAR M076         
1 37190U 10054C   24138.61564071 -.00000083  00000+0  11595-3 0  9993
2 37190  52.0030 263.4859 0000771 162.4024 210.9678 12.62278946626827
GLOBALSTAR M077         
1 37191U 10054D   24138.52363975 -.00000082  00000+0  12213-3 0  9991
2 37191  52.0064 220.5113 0000346 149.3912 224.1180 12.62273176627185
GLOBALSTAR M075         
1 37192U 10054E   24137.75791902 -.00000064  00000+0  22381-3 0  9998
2 37192  51.9953 308.5766 0000916 106.6455 266.1645 12.62274185625948
GLOBALSTAR M073         
1 37193U 10054F   24138.47065818 -.00000083  00000+0  11368-3 0  9993
2 37193  52.0052 219.9248 0000483 152.8696 219.4349 12.62265298627860
GLOBALSTAR M083         
1 37739U 11033A   24138.51319094 -.00000092  00000+0  66785-4 0  9994
2 37739  51.9833 169.0659 0000350  90.4574  56.4775 12.62270134596881
GLOBALSTAR M088         
1 37740U 11033B   24138.57110229 -.00000091  00000+0  70277-4 0  9991
2 37740  51.9742  74.7104 0000715  67.4133 103.2432 12.62268169592432
GLOBALSTAR M091         
1 37741U 11033C   24138.50547426 -.00000084  00000+0  10973-3 0  9996
2 37741  52.0020  37.7600 0001045  75.8920  95.5057 12.62262661593212
GLOBALSTAR M085         
1 37742U 11033D   24138.33349751 -.00000075  00000+0  16150-3 0  9992
2 37742  51.9887 349.6731 0001114  90.9251  79.2811 12.62271042593708
GLOBALSTAR M081         
1 37743U 11033E   24138.36035450 -.00000067  00000+0  20408-3 0  9996
2 37743  51.9976 352.1348 0001086 101.0319  70.7959 12.62264814593852
GLOBALSTAR M089         
1 37744U 11033F   24138.52923395 -.00000074  00000+0  16575-3 0  9997
2 37744  51.9935 305.9246 0000658 132.8202 265.5207 12.62263753594726
GLOBALSTAR M084         
1 38040U 11080A   24138.48681573 -.00000078  00000+0  14372-3 0  9990
2 38040  51.9985 173.1289 0000176 235.0662 272.2020 12.62262550572698
GLOBALSTAR M080         
1 38041U 11080B   24138.35184852 -.00000075  00000+0  15791-3 0  9998
2 38041  52.0038 175.0087 0000457 213.3003 159.6696 12.62272761572802
GLOBALSTAR M082         
1 38042U 11080C   24138.39480436 -.00000083  00000+0  11543-3 0  9990
2 38042  52.0054 130.2815 0000802  43.1150 104.6336 12.62269593573518
GLOBALSTAR M092         
1 38043U 11080D   24138.49676872 -.00000087  00000+0  92328-4 0  9998
2 38043  52.0073 220.3248 0000282 135.8645 237.2764 12.62262508571987
GLOBALSTAR M090         
1 38044U 11080E   24137.71359294 -.00000084  00000+0  11059-3 0  9997
2 38044  51.9863 126.6731 0000525  53.4676 117.9304 12.62263258573548
GLOBALSTAR M086         
1 38045U 11080F   24138.36824576 -.00000075  00000+0  15857-3 0  9990
2 38045  51.9876 125.1992 0000849 146.9757   1.0396 12.62270971573570
GLOBALSTAR M097         
1 39072U 13005A   24138.44173299 -.00000087  00000+0  91758-4 0  9996
2 39072  52.0070  39.1232 0000928  82.6923 277.4050 12.62262942520835
GLOBALSTAR M093         
1 39073U 13005B   24138.41506837 -.00000086  00000+0  10150-3 0  9997
2 39073  51.9833  33.1395 0001038  83.9680 276.1305 12.62259156520788
GLOBALSTAR M094         
1 39074U 13005C   24138.41508737 -.00000074  00000+0  16572-3 0  9990
2 39074  51.9964 307.1266 0001055 109.3878 250.7103 12.62265992522394
GLOBALSTAR M096         
1 39075U 13005D   24138.34902391 -.00000075  00000+0  16058-3 0  9997
2 39075  52.0095 355.5329 0001182  91.8803 268.2199 12.62265724521305
GLOBALSTAR M078         
1 39076U 13005E   24137.53129525 -.00000098  00000+0  30729-4 0  9995
2 39076  51.9877  83.0722 0001417  34.9413 325.1546 12.62268578520036
GLOBALSTAR M095         
1 39077U 13005F   24138.50711152 -.00000091  00000+0  71130-4 0  9991
2 39077  51.9806  77.4880 0001200  59.5430 300.5555 12.62266178519807
GLOBALSTAR M087         
1 52888U 22064A   24138.17354582 -.00000056  00000+0  13808-3 0  9992
2 52888  51.9763 316.5246 0008576 286.6270  73.3688 13.37573944 93371
